$GPGGA,065520.000,3990.8342,N,11623.5225,E,1,08,1.2,52.3,M,-10.5,M,,*47
$GPRMC,065520.000,A,3990.8342,N,11623.5225,E,0.5,45.2,090626,6.5,W,A*24
$GPGSA,A,3,01,03,07,08,11,14,17,22,,,,,1.5,1.2,0.9*32
$GPGSV,3,1,12,01,45,120,42,03,60,240,45,07,15,030,38,08,75,300,48*71
$GPGSV,3,2,12,11,20,150,35,14,55,060,44,17,30,270,40,22,70,180,50*77
$GPGSV,3,3,12,19,10,090,20,25,05,330,15,28,85,045,47,31,40,210,38*75

$GPGGA,065521.000,3990.8421,N,11623.5350,E,1,08,1.2,52.4,M,-10.5,M,,*40
$GPRMC,065521.000,A,3990.8421,N,11623.5350,E,2.1,50.5,090626,6.5,W,A*21
$GPVTG,50.5,T,57.0,M,0.0021,N,0.0039,K,A*28

$GPGGA,065522.000,3990.8510,N,11623.5510,E,1,08,1.1,52.5,M,-10.5,M,,*40
$GPRMC,065522.000,A,3990.8510,N,11623.5510,E,5.3,55.0,090626,6.5,W,A*26

$GPGGA,065523.000,3990.8620,N,11623.5700,E,1,09,1.0,52.7,M,-10.5,M,,*40
$GPRMC,065523.000,A,3990.8620,N,11623.5700,E,8.7,58.2,090626,6.5,W,A*22
$GPGSA,A,3,01,03,07,08,11,14,17,22,28,,,,1.4,1.0,0.8*3A
$GPGSV,3,1,12,01,45,120,43,03,60,240,46,07,15,030,39,08,75,300,49*73

$GPGGA,065524.000,3990.8750,N,11623.5920,E,1,09,0.9,52.9,M,-10.5,M,,*4B
$GPRMC,065524.000,A,3990.8750,N,11623.5920,E,12.1,62.8,090626,6.5,W,A*11
$GPVTG,62.8,T,69.3,M,0.0121,N,0.0224,K,A*25

$GPGGA,065525.000,3990.8900,N,11623.6150,E,2,10,0.8,53.1,M,-10.5,M,,*4E
$GPRMC,065525.000,A,3990.8900,N,11623.6150,E,15.5,65.0,090626,6.5,W,A*1B
$GPGSA,A,3,01,03,07,08,11,14,17,22,28,31,,1.3,0.8,0.7*15
$GPGSV,3,1,12,01,45,120,44,03,60,240,47,07,15,030,40,08,75,300,50*73
$GPGSV,3,2,12,11,20,150,36,14,55,060,45,17,30,270,41,22,70,180,51*75
$GPGSV,3,3,12,19,10,090,21,25,05,330,16,28,85,045,48,31,40,210,39*79

$GPGGA,065526.000,3990.9050,N,11623.6400,E,2,10,0.8,53.2,M,-10.5,M,,*43
$GPRMC,065526.000,A,3990.9050,N,11623.6400,E,14.8,68.0,090626,6.5,W,A*14

$GPGGA,065527.000,3990.9200,N,11623.6680,E,2,11,0.7,53.4,M,-10.5,M,,*47
$GPRMC,065527.000,A,3990.9200,N,11623.6680,E,18.2,70.5,090626,6.5,W,A*12
$GPVTG,70.5,T,77.0,M,0.0182,N,0.0337,K,A*2D

$GPGGA,065528.000,3990.9380,N,11623.7000,E,1,11,0.7,53.6,M,-10.5,M,,*4F
$GPRMC,065528.000,A,3990.9380,N,11623.7000,E,22.0,72.0,090626,6.5,W,A*17
$GPGSA,A,3,01,03,07,08,11,14,17,22,28,31,25,1.2,0.7,0.6*1D

$GPGGA,065529.000,3990.9550,N,11623.7350,E,1,11,0.7,53.7,M,-10.5,M,,*42
$GPRMC,065529.000,A,3990.9550,N,11623.7350,E,25.3,75.5,090626,6.5,W,A*1D
$GPGSV,3,1,12,01,45,120,45,03,60,240,48,07,15,030,41,08,75,300,51*7D
$GPGSV,3,2,12,11,20,150,37,14,55,060,46,17,30,270,42,22,70,180,52*77
$GPGSV,3,3,12,19,10,090,22,25,05,330,17,28,85,045,49,31,40,210,40*74

$GPGGA,065530.000,3990.9700,N,11623.7700,E,1,12,0.6,53.9,M,-10.5,M,,*40
$GPRMC,065530.000,A,3990.9700,N,11623.7700,E,20.5,78.2,090626,6.5,W,A*1A
$GPVTG,78.2,T,84.7,M,0.0205,N,0.0380,K,A*29
